[{"OBJECT_NAME":"STARLINK-30374","OBJECT_ID":"2023-138B","EPOCH":"2026-03-09T18:27:01.753056","MEAN_MOTION":15.27584414,"ECCENTRICITY":0.00017232,"INCLINATION":43.0014,"RA_OF_ASC_NODE":233.4579,"ARG_OF_PERICENTER":289.6871,"MEAN_ANOMALY":70.3794,"EPHEMERIS_TYPE":0,"CLASSIFICATION_TYPE":"U","NORAD_CAT_ID":57809,"ELEMENT_SET_NO":999,"REV_AT_EPOCH":13875,"BSTAR":-7.469496e-6,"MEAN_MOTION_DOT":-4.68e-6,"MEAN_MOTION_DDOT":0},{"OBJECT_NAME":"AL MUNTHER","OBJECT_ID":"2025-052AG","EPOCH":"2026-03-09T15:29:23.207136","MEAN_MOTION":15.28381521,"ECCENTRICITY":0.0008027,"INCLINATION":97.4001,"RA_OF_ASC_NODE":323.9152,"ARG_OF_PERICENTER":130.7043,"MEAN_ANOMALY":229.4895,"EPHEMERIS_TYPE":0,"CLASSIFICATION_TYPE":"U","NORAD_CAT_ID":63240,"ELEMENT_SET_NO":999,"REV_AT_EPOCH":5479,"BSTAR":0.00065015,"MEAN_MOTION_DOT":0.00017933,"MEAN_MOTION_DDOT":0}]
